{"type":"FeatureCollection","crs":{"type":"name","properties":{"name":"EPSG:4326"}},"features":[{"type":"Feature","id":1,"geometry":{"type":"Polygon","coordinates":[[[-122.285550480133,47.5028274579564],[-122.280840840587,47.502758673388],[-122.266008711187,47.4909383717506],[-122.264178761952,47.4892767779357],[-122.264392500219,47.4886754451577],[-122.263990874897,47.4882062005307],[-122.265070323525,47.4878763874138],[-122.26555691432,47.4886080607521],[-122.266268008316,47.4890206933931],[-122.267209392544,47.4893250114905],[-122.267985192679,47.4892625091632],[-122.268984013167,47.4888282758668],[-122.269679177911,47.4886613797096],[-122.27030096881,47.4886535108219],[-122.270623479178,47.4890710355307],[-122.270796352113,47.4897012561681],[-122.27096922925,47.4903314774473],[-122.271451566282,47.4909050779074],[-122.272472196273,47.4912610502813],[-122.273717294007,47.4912979610241],[-122.275112023748,47.4911221539769],[-122.276811820932,47.490731648067],[-122.277891240741,47.4904017130458],[-122.278664124164,47.490233772824],[-122.279278629589,47.4899624434057],[-122.280162434433,47.4901418877395],[-122.280509894727,47.4911783263866],[-122.280709805829,47.4924490066331],[-122.280514496423,47.4934859424989],[-122.280484893366,47.4943173374608],[-122.280652453005,47.4947997665908],[-122.280787125749,47.4953699818139],[-122.28084891905,47.4956665287037],[-122.280866404367,47.4967296659366],[-122.280868325208,47.4971231835124],[-122.28081913069,47.4977664672579],[-122.280777492766,47.4984451158431],[-122.280762764164,47.4988886626285],[-122.280744290721,47.4991198758646],[-122.280703788542,47.4993480099048],[-122.280751293092,47.4997297311488],[-122.280761695443,47.5000225648043],[-122.280796560712,47.5001322741771],[-122.280863046287,47.5002301924497],[-122.280938457837,47.500279370989],[-122.281198713857,47.5003191209288],[-122.28149485935,47.5003865528484],[-122.281967339292,47.5004610750102],[-122.282690824335,47.500504823468],[-122.283020111728,47.5005144907873],[-122.283880930002,47.5006112529401],[-122.284427632539,47.5006727027636],[-122.286373896995,47.5007495035083],[-122.287693138581,47.5008285633948],[-122.288186402136,47.500870912779],[-122.288910386505,47.502876409412],[-122.285550480133,47.5028274579564]]]},"properties":{"OBJECTID":1,"Id":0,"Neighborho":"Allentown","DataProvid":"Tukwila","EditDate":"Wed, 01 Dec 2010 00:00:00 GMT","Area":243,"SqFeet":10587047}},{"type":"Feature","id":2,"geometry":{"type":"Polygon","coordinates":[[[-122.287889564774,47.4670177346488],[-122.28859849075,47.4670278858647],[-122.28868470007,47.4670605916328],[-122.288733988851,47.4671026714949],[-122.28882349537,47.4674351987714],[-122.288962909205,47.4682189044373],[-122.289105452784,47.4690196748068],[-122.289324037096,47.4705598486585],[-122.28930485322,47.4707241401097],[-122.28929664031,47.4714068065957],[-122.289624532781,47.4724180263427],[-122.289878059472,47.4728767749729],[-122.290286620937,47.4734969737414],[-122.290758440079,47.4742131781427],[-122.290855215297,47.4744137341909],[-122.291044818529,47.474694441413],[-122.291097726166,47.4746937618473],[-122.292466773439,47.4767426284661],[-122.293193716791,47.4778122443438],[-122.293718758882,47.4786993065206],[-122.294335198877,47.4798395410256],[-122.294527573508,47.4803457647575],[-122.294693128614,47.4807824814101],[-122.294975637573,47.4821439736144],[-122.295081004925,47.4826040978762],[-122.295300961331,47.4833709230343],[-122.295239017053,47.4833712314474],[-122.295267728966,47.4834660995849],[-122.295329407114,47.4834652881107],[-122.295506856495,47.4840517077455],[-122.295605718012,47.4843783968461],[-122.295685215798,47.4846410922135],[-122.295758561366,47.4848834620736],[-122.295815218762,47.485070676531],[-122.295892092684,47.4853246299916],[-122.295834885284,47.4853254138303],[-122.295937749972,47.4856594881226],[-122.296039033754,47.4859766576383],[-122.296118545735,47.4862205761358],[-122.296164241961,47.4862206727795],[-122.296243925268,47.4864650819754],[-122.296325164256,47.4867142524508],[-122.296420480422,47.4869831235058],[-122.296599335656,47.4874689690637],[-122.29678747043,47.487966609963],[-122.296914590561,47.488303293641],[-122.297111413103,47.4888121588423],[-122.296684818827,47.4887625769862],[-122.296480276738,47.4887493939599],[-122.292256774575,47.4887826025119],[-122.291117121331,47.48881033834],[-122.29023125655,47.487714987406],[-122.288961237902,47.4867826601632],[-122.288003610606,47.4858990177242],[-122.287041610941,47.4848573201988],[-122.286557690655,47.4842311036852],[-122.285978459955,47.482973693279],[-122.285148521814,47.4810870747479],[-122.284390491645,47.4789887272838],[-122.283651562466,47.4775752448427],[-122.283697045406,47.4764152413885],[-122.283748386332,47.4754659674209],[-122.285938885271,47.4708522849636],[-122.286400182188,47.4699362385836],[-122.287101880026,47.4685638016159],[-122.287889564774,47.4670177346488]]]},"properties":{"OBJECTID":2,"Id":0,"Neighborho":"Cascade View","DataProvid":"Tukwila","EditDate":"Wed, 01 Dec 2010 00:00:00 GMT","Area":306,"SqFeet":13339719}},{"type":"Feature","id":3,"geometry":{"type":"Polygon","coordinates":[[[-122.287922093665,47.5004225080793],[-122.287295315528,47.5003959010409],[-122.286784655722,47.5003721951991],[-122.286274673153,47.5003278965005],[-122.285997550234,47.5003191392766],[-122.285611359208,47.5002671617574],[-122.285313640335,47.5002384172457],[-122.284675531766,47.5001699735537],[-122.284321967266,47.5001231791431],[-122.283905846083,47.5000819920672],[-122.283324219987,47.5000510881185],[-122.283319900902,47.5000980365791],[-122.282649117605,47.50008535821],[-122.282345540938,47.5000325913099],[-122.282203305627,47.4999840936637],[-122.282041928905,47.499968159883],[-122.281913366214,47.4999757284368],[-122.281806401032,47.4999705124418],[-122.281728167861,47.4999340826705],[-122.281558821206,47.4999171442657],[-122.281449517806,47.4998954123738],[-122.281422271548,47.4998870130735],[-122.281406783742,47.4998315129527],[-122.281415493659,47.4997087670342],[-122.281360291587,47.4995138177087],[-122.281302505154,47.4993465891092],[-122.281296370091,47.499289861405],[-122.28131760116,47.4991915076195],[-122.281310574094,47.4990088612324],[-122.281339407582,47.4987379865701],[-122.281357793635,47.4986164963413],[-122.281350314086,47.4984819499721],[-122.281378423613,47.4984070697903],[-122.281443841847,47.498237384756],[-122.281436567317,47.4980967949835],[-122.28145091263,47.4979634177199],[-122.28149988477,47.4976956092647],[-122.281532667139,47.4974393673895],[-122.28154499103,47.4969320894707],[-122.28155624368,47.4968179076501],[-122.281442144062,47.4965579751973],[-122.281416299163,47.4962054181881],[-122.281353712282,47.4959300995664],[-122.281340616732,47.4956928117135],[-122.281253687948,47.4953712061819],[-122.281179683524,47.4949489634243],[-122.281759496266,47.4948656906278],[-122.282693933952,47.4959059660236],[-122.282989585222,47.4961801103869],[-122.283430078659,47.4965036111058],[-122.283840330976,47.4967593349376],[-122.284512968662,47.4972162401499],[-122.285530300888,47.4976548202626],[-122.286064157799,47.4979678907122],[-122.28664803554,47.4984019954226],[-122.287207735758,47.4989691398404],[-122.287449627722,47.4992926144325],[-122.287579350879,47.4994440736769],[-122.287617254651,47.4995319053708],[-122.287681086711,47.4997636618288],[-122.287922093665,47.5004225080793]]]},"properties":{"OBJECTID":3,"Id":0,"Neighborho":"Duwamish","DataProvid":"Tukwila","EditDate":"Wed, 01 Dec 2010 00:00:00 GMT","Area":40,"SqFeet":1754180}},{"type":"Feature","id":4,"geometry":{"type":"Polygon","coordinates":[[[-122.270109520562,47.4741638243993],[-122.284337783253,47.4742990112153],[-122.283745456985,47.4753606026723],[-122.283431840619,47.4766294506714],[-122.283554508383,47.4775494475972],[-122.284799255096,47.4810886196534],[-122.284682424951,47.4811107854096],[-122.284765860252,47.4813128907933],[-122.284438618351,47.4813116403571],[-122.282858222168,47.4813155545046],[-122.282705992909,47.4813202017158],[-122.282848456035,47.4815415086345],[-122.282393839867,47.4815479331003],[-122.280692292312,47.4815565346589],[-122.279885413298,47.481560605178],[-122.279881766987,47.4817775829904],[-122.279744034439,47.4815949326403],[-122.279645657444,47.481507978994],[-122.279382514879,47.4813155300545],[-122.279347562325,47.4812900012962],[-122.278922024728,47.4812880557181],[-122.278764217752,47.4812873333167],[-122.276383559013,47.4812769311674],[-122.274013087398,47.4812902646387],[-122.273079352125,47.4812688397591],[-122.272594086185,47.4813254477048],[-122.272762753456,47.4805502520822],[-122.27284166069,47.4798909927504],[-122.272374012148,47.4787778819235],[-122.270109520562,47.4741638243993]]]},"properties":{"OBJECTID":4,"Id":0,"Neighborho":"Foster","DataProvid":"Tukwila","EditDate":"Wed, 01 Dec 2010 00:00:00 GMT","Area":180,"SqFeet":7856126}},{"type":"Feature","id":5,"geometry":{"type":"Polygon","coordinates":[[[-122.265039260003,47.4878805088971],[-122.264057407047,47.4880601038772],[-122.263717388066,47.4876556379598],[-122.263210931694,47.4871789495762],[-122.262513191842,47.4867232476184],[-122.261535357795,47.4860481108559],[-122.26072448922,47.4854637639191],[-122.25977867364,47.4849554252557],[-122.258695879415,47.4844487999303],[-122.257947982266,47.484160915867],[-122.258934351434,47.4841485324688],[-122.259755817257,47.4841196335371],[-122.260311929126,47.4844099168936],[-122.260865505609,47.4846073313055],[-122.261198365839,47.484751780867],[-122.261883350852,47.484743162593],[-122.262620082716,47.4846224120311],[-122.263218285273,47.484447662058],[-122.263625200418,47.4842938985886],[-122.264139670073,47.4840644608189],[-122.264706896207,47.4837600364496],[-122.265111251219,47.4835134024374],[-122.265785509554,47.4831147250376],[-122.266105619793,47.4827948323598],[-122.266510981299,47.482585339087],[-122.266755014078,47.4824893602499],[-122.267082260219,47.4824294884401],[-122.267523695174,47.4825353894147],[-122.267965642734,47.4826598615252],[-122.268385304162,47.482970409497],[-122.268584758805,47.4832465809945],[-122.268620845032,47.4835619784014],[-122.268577290006,47.4839712793654],[-122.268475359611,47.4842512622783],[-122.26826434225,47.4845512034174],[-122.268000566466,47.4849261290751],[-122.267680965506,47.4852645999613],[-122.267359829847,47.4855473513656],[-122.266983888905,47.48583079309],[-122.266498855371,47.4861341910737],[-122.266009733565,47.4862890014091],[-122.265466829013,47.4864816476263],[-122.265172054183,47.486726900542],[-122.264938194358,47.4871943396191],[-122.265001153222,47.4874908188631],[-122.265039260003,47.4878805088971]]]},"properties":{"OBJECTID":5,"Id":0,"Neighborho":"Foster Point","DataProvid":"Tukwila","EditDate":"Wed, 01 Dec 2010 00:00:00 GMT","Area":47,"SqFeet":2068069}},{"type":"Feature","id":6,"geometry":{"type":"Polygon","coordinates":[[[-122.289536705526,47.4635327148284],[-122.289085786813,47.4634172638193],[-122.288982096438,47.4633917347868],[-122.288262929372,47.4633096385424],[-122.28742423982,47.4631848066179],[-122.286271113631,47.4630506614878],[-122.285449451764,47.4629673527456],[-122.284522057636,47.4629681830121],[-122.283663094297,47.4630895037378],[-122.282887596417,47.4632869883315],[-122.28229299561,47.4635346293486],[-122.281556596248,47.4639880794285],[-122.280722135822,47.4644069778183],[-122.280052148645,47.4648899752149],[-122.278832609172,47.4654194312318],[-122.277894277208,47.4657008660947],[-122.277006042263,47.4657675079444],[-122.276284289981,47.4657323840426],[-122.275646330314,47.4656765244898],[-122.274912799421,47.4655622414159],[-122.273877130024,47.4652117634673],[-122.270962353986,47.4637328893075],[-122.268860648755,47.4627850304365],[-122.266876923092,47.46149328407],[-122.265693379388,47.4608219849143],[-122.265340128219,47.4606299898741],[-122.265038599837,47.4603138162565],[-122.264868659965,47.4598579257327],[-122.264509393933,47.4584007578568],[-122.264417962806,47.4560736507668],[-122.264568059415,47.4547186974667],[-122.264915055411,47.452819522135],[-122.266878075666,47.4478224438125],[-122.268859094239,47.4478479437146],[-122.26887850325,47.4491275763403],[-122.267510980444,47.4491141448689],[-122.267124284111,47.4496203250005],[-122.267148104969,47.4511936889396],[-122.26796050874,47.4511961219318],[-122.26796428375,47.4517254487372],[-122.268918048127,47.4517348141572],[-122.268925995648,47.4522586295277],[-122.267839946557,47.4522641878853],[-122.267828954388,47.4545243557302],[-122.271342288361,47.4545869819827],[-122.271358925229,47.4563317188166],[-122.272875253246,47.4563356338265],[-122.276819814173,47.456345725574],[-122.28105587112,47.4563564103272],[-122.28105533435,47.4569437274645],[-122.281006824681,47.4569468059545],[-122.281017983293,47.4575505120351],[-122.281054777761,47.4575506038811],[-122.281053674293,47.4587517982545],[-122.281052873356,47.4597082842593],[-122.284986865865,47.4597214444727],[-122.287393183765,47.4597291414684],[-122.289364153894,47.4597355255615],[-122.290873807987,47.459740392583],[-122.291362599424,47.4597419631566],[-122.291409470194,47.4597679331664],[-122.291430484343,47.4598119026627],[-122.290936825466,47.4607901024603],[-122.290548215404,47.4615452412158],[-122.290197842744,47.4622314146406],[-122.289887461157,47.4628392987665],[-122.289536705526,47.4635327148284]]]},"properties":{"OBJECTID":6,"Id":0,"Neighborho":"McMicken","DataProvid":"Tukwila","EditDate":"Wed, 01 Dec 2010 00:00:00 GMT","Area":386,"SqFeet":16829893}},{"type":"Feature","id":7,"geometry":{"type":"Polygon","coordinates":[[[-122.285122460762,47.4812671656376],[-122.285753437597,47.4826009943798],[-122.286110152038,47.4833950067963],[-122.28709005875,47.4850694672473],[-122.28789101885,47.4859027094808],[-122.289324278396,47.4870968715432],[-122.290357079085,47.487874405218],[-122.29092341095,47.4886579201527],[-122.291547396532,47.4899369053329],[-122.287963963443,47.4899352534814],[-122.286420067381,47.4900026491145],[-122.284453417158,47.4900278044689],[-122.285133262132,47.491733569069],[-122.281972467465,47.491773944875],[-122.281804521263,47.4907779535814],[-122.281552238112,47.4900958269278],[-122.280911205469,47.4894186575076],[-122.27910917516,47.4885633320454],[-122.277093746408,47.4872739221261],[-122.27427235036,47.4856019272807],[-122.271746701833,47.484263271917],[-122.270428950959,47.4835540115082],[-122.271241529722,47.4829359857129],[-122.271466798979,47.4823707495004],[-122.271599547998,47.4818687292803],[-122.271783370353,47.4813564791671],[-122.273297847325,47.4812913557193],[-122.275935467587,47.4812749678606],[-122.279019781251,47.4812863644791],[-122.279347562325,47.4812900012962],[-122.279653591613,47.4815141984594],[-122.279788982515,47.4816437674894],[-122.279883242439,47.4817803034579],[-122.279885413298,47.481560605178],[-122.279966301011,47.4815601968272],[-122.281661069993,47.4815516395704],[-122.282848456035,47.4815415086345],[-122.282709755108,47.481322307311],[-122.282906996091,47.4813223191229],[-122.284783334328,47.4813139861574],[-122.285122460762,47.4812671656376]]]},"properties":{"OBJECTID":7,"Id":0,"Neighborho":"Riverton","DataProvid":"Tukwila","EditDate":"Wed, 01 Dec 2010 00:00:00 GMT","Area":246,"SqFeet":10718896}},{"type":"Feature","id":8,"geometry":{"type":"Polygon","coordinates":[[[-122.278238121986,47.5080546992501],[-122.277226044399,47.5079432698678],[-122.276527160469,47.5075481756001],[-122.27615207489,47.5073033847836],[-122.275451394815,47.507199286524],[-122.275448704441,47.5073736524197],[-122.275430203976,47.5085734558004],[-122.275411515495,47.5097847332104],[-122.274277990902,47.5097590402753],[-122.272556925452,47.5097200116403],[-122.271213506555,47.5096895253361],[-122.270068860007,47.5096628373536],[-122.270101179353,47.5074152874575],[-122.270128890408,47.5062790558607],[-122.270155687494,47.504932265953],[-122.270171578455,47.504092290799],[-122.270189946005,47.5031212241957],[-122.270203720813,47.5023040742369],[-122.270216295918,47.501390941042],[-122.270869339706,47.5015507881084],[-122.270696204587,47.5007947647056],[-122.270755339652,47.5008083457713],[-122.270680861444,47.500403861119],[-122.27023215177,47.5002942976552],[-122.270233155547,47.5002205496985],[-122.270234122029,47.5001495432779],[-122.270299276195,47.4963065043635],[-122.275103534185,47.5006444297202],[-122.276844183125,47.5022374230662],[-122.27786581164,47.5037201032944],[-122.278049596826,47.5045487734606],[-122.278285749388,47.5055361090706],[-122.278339557421,47.5064354344293],[-122.278238121986,47.5080546992501]]]},"properties":{"OBJECTID":8,"Id":0,"Neighborho":"Ryan Hill","DataProvid":"Tukwila","EditDate":"Wed, 01 Dec 2010 00:00:00 GMT","Area":150,"SqFeet":6545367}},{"type":"Feature","id":9,"geometry":{"type":"Polygon","coordinates":[[[-122.284186997132,47.4742296188773],[-122.269965602343,47.4739232965613],[-122.269183179071,47.4716053013861],[-122.267892190544,47.4682109893661],[-122.267016754276,47.4654069235664],[-122.267378604966,47.4640489239062],[-122.268717418598,47.4633823508311],[-122.269995765727,47.4634203090526],[-122.271694016373,47.4642108515172],[-122.274282139649,47.4654231706388],[-122.275726137864,47.4656755100576],[-122.277801117156,47.4656491153252],[-122.279067529439,47.4652540262638],[-122.281192264121,47.4641441902867],[-122.28252789775,47.4633692172076],[-122.284036636447,47.4630792517887],[-122.285311975552,47.4630088013681],[-122.286912549884,47.4631507207843],[-122.288994971477,47.4633947110116],[-122.289537286938,47.4635247423254],[-122.288705789859,47.4651519860308],[-122.287905545288,47.4667198151155],[-122.285929429728,47.4708508146071],[-122.286009244991,47.4708497929434],[-122.284186997132,47.4742296188773]]]},"properties":{"OBJECTID":9,"Id":0,"Neighborho":"Thorndyke","DataProvid":"Tukwila","EditDate":"Wed, 01 Dec 2010 00:00:00 GMT","Area":378,"SqFeet":16475582}},{"type":"Feature","id":10,"geometry":{"type":"Polygon","coordinates":[[[-122.245738260344,47.4638331213993],[-122.249298629108,47.4626518740788],[-122.251831721761,47.4618623180426],[-122.254779955239,47.4616630117568],[-122.257272987811,47.4623355331085],[-122.26072668383,47.4631041936243],[-122.263791845397,47.4642566086895],[-122.26574133323,47.4654771683626],[-122.267380600701,47.4670264399137],[-122.269019079303,47.4714449666419],[-122.270407930338,47.4754876743578],[-122.271937252292,47.4788248044317],[-122.27184475352,47.4812621497243],[-122.271473947305,47.4822954546369],[-122.27125235271,47.4829479085735],[-122.27039058498,47.4835543308017],[-122.26722497237,47.4816995637518],[-122.265603078022,47.4807997102068],[-122.262674320069,47.4788335574654],[-122.259265356371,47.4768192295806],[-122.256650439983,47.4746324360573],[-122.255416245096,47.473294482937],[-122.254148216315,47.4707117915238],[-122.252481256983,47.4681340782148],[-122.251568029921,47.4668462094726],[-122.248987705179,47.4659039653818],[-122.24688484566,47.4649015805381],[-122.245915449932,47.4644805581015],[-122.245738260344,47.4638331213993]]]},"properties":{"OBJECTID":10,"Id":0,"Neighborho":"Tukwila Hill","DataProvid":"Tukwila","EditDate":"Wed, 01 Dec 2010 00:00:00 GMT","Area":541,"SqFeet":23561993}},{"type":"Feature","id":11,"geometry":{"type":"Polygon","coordinates":[[[-122.263718236852,47.4424529375591],[-122.263358662267,47.4423331606147],[-122.263090296467,47.4421984214134],[-122.263037146107,47.4421162174003],[-122.26273088244,47.4417126146213],[-122.262489647903,47.4414532211632],[-122.260431996669,47.4414031621317],[-122.260587458667,47.4403873846345],[-122.260545997674,47.4401700253839],[-122.260290886018,47.4402750663537],[-122.258146588128,47.4402692306353],[-122.258122376255,47.4412671961526],[-122.25445197968,47.4412256044952],[-122.25335028193,47.4412093576517],[-122.252527592099,47.4412780308666],[-122.252695905672,47.4409608173703],[-122.25313897995,47.4403846899677],[-122.253274915995,47.4397605342571],[-122.253393921805,47.4385141372985],[-122.253880237679,47.4367184933495],[-122.254175352364,47.4363257625769],[-122.254889381061,47.435875910408],[-122.255335212565,47.435403480719],[-122.255550356499,47.4348820711817],[-122.255873768757,47.4341258829201],[-122.256357785974,47.4336529699291],[-122.256924576351,47.4334124359875],[-122.257381681204,47.4333548255924],[-122.257955537841,47.4333735540887],[-122.258462880992,47.4337562137152],[-122.259319792086,47.43434196045],[-122.260319644883,47.4345628032134],[-122.261084569485,47.4345791116869],[-122.261808445621,47.434492189398],[-122.262525222269,47.4341459952144],[-122.263089150986,47.4338017235374],[-122.263157050065,47.4334896402699],[-122.262989302813,47.4329471073559],[-122.262524230495,47.4327157337942],[-122.261568537484,47.4322335424642],[-122.260552637809,47.4319492410347],[-122.260156308808,47.4318665407981],[-122.25918269904,47.4314360433519],[-122.258956597485,47.4312829159488],[-122.258751837084,47.4310313358444],[-122.258558683285,47.4308192148927],[-122.258519630029,47.4305993816175],[-122.25856201261,47.4304008598688],[-122.258653265068,47.4302209633907],[-122.258830801884,47.4300126220405],[-122.25913479111,47.4298237337139],[-122.259239219053,47.429716015242],[-122.25981860489,47.429554336825],[-122.261537662707,47.4295700871886],[-122.262374720517,47.4295899529709],[-122.263127119247,47.4295415143804],[-122.263973190046,47.4294351121825],[-122.264438798731,47.429329577414],[-122.26487621595,47.4291554168152],[-122.265349702497,47.4289490811775],[-122.265725248796,47.4287262219045],[-122.266058752387,47.4282328967597],[-122.266265345726,47.4275203578403],[-122.266305746275,47.427250723518],[-122.266380682043,47.4270353002377],[-122.266389953146,47.4269416272881],[-122.266599001649,47.4266645941647],[-122.266850077933,47.4264232018995],[-122.26724811463,47.4258540949612],[-122.267409436655,47.4255947182646],[-122.267483127682,47.4253649695227],[-122.267481138802,47.4250637671053],[-122.267366701744,47.4248101603104],[-122.267058780239,47.4245336937403],[-122.266725078453,47.4242466465403],[-122.266154038082,47.4236911892234],[-122.265815959313,47.4233649564022],[-122.265640198279,47.4232156082388],[-122.265583797965,47.4231104792389],[-122.265452919216,47.4231536423141],[-122.265349304633,47.4229045334726],[-122.265267173082,47.4226568039834],[-122.265242941602,47.4222916868671],[-122.265251986668,47.4220859367662],[-122.265361349542,47.4217389998455],[-122.265633180897,47.4213121714717],[-122.266235472877,47.4207085652597],[-122.266817797825,47.4201484254445],[-122.267140290147,47.4197947893769],[-122.267379890881,47.4193980569797],[-122.276960174544,47.4193447802999],[-122.277468011848,47.4194301989806],[-122.277594595089,47.4197157513967],[-122.277779179186,47.4197828817999],[-122.277907435683,47.4197910091606],[-122.279217481047,47.4193053497362],[-122.280309370171,47.4192883488457],[-122.278447026139,47.4205756290977],[-122.27785407794,47.4211046263476],[-122.27741316297,47.4217431635489],[-122.277236590922,47.4221688352395],[-122.277078817213,47.4231839549163],[-122.277105825364,47.4234046116399],[-122.277084712387,47.4237725069035],[-122.276925321986,47.4242991626958],[-122.276788805251,47.4245540096897],[-122.276430647872,47.4250058910457],[-122.275448023286,47.426242479669],[-122.275125195647,47.4266487422751],[-122.274770377632,47.4270679518183],[-122.274350901781,47.42744491655],[-122.274204708294,47.4275691856839],[-122.271394346026,47.4295725275914],[-122.270066549748,47.4297878746766],[-122.269769288988,47.4299720890645],[-122.269958335837,47.4305132885027],[-122.26963596213,47.4316951039554],[-122.269672572627,47.4321239727798],[-122.26981256767,47.4327030595022],[-122.269732310051,47.4329095854318],[-122.269266012224,47.4348399692389],[-122.26912051584,47.4355097717376],[-122.268966090148,47.4362202254071],[-122.26884311537,47.4366408682079],[-122.268551573398,47.4368978060594],[-122.26794866069,47.4372407485388],[-122.266645256318,47.4378397759412],[-122.266488486599,47.4378379320238],[-122.266221638754,47.4379823553525],[-122.265997735505,47.4381333432363],[-122.265750275394,47.4383452912936],[-122.265540884401,47.4385845932355],[-122.265386456285,47.4388308958951],[-122.265232969168,47.4391604338082],[-122.265205629139,47.4405533809814],[-122.265160413483,47.4428574035964],[-122.263718236852,47.4424529375591]]]},"properties":{"OBJECTID":11,"Id":0,"Neighborho":"Tukwila South","DataProvid":"Tukwila","EditDate":"Wed, 01 Dec 2010 00:00:00 GMT","Area":493,"SqFeet":21455849}},{"type":"Feature","id":12,"geometry":{"type":"Polygon","coordinates":[[[-122.260005537147,47.462067496032],[-122.258981769394,47.4618760630885],[-122.257024015544,47.4616282431462],[-122.254814413918,47.4616137817808],[-122.252291096038,47.461668073219],[-122.249697080793,47.4622255495924],[-122.247421396195,47.4630130425692],[-122.245388530183,47.4636999036383],[-122.24283017499,47.4645223795601],[-122.240894810651,47.4651485126672],[-122.240756357457,47.464931820066],[-122.240427757221,47.4642670430607],[-122.240244712207,47.4637176606027],[-122.240168958197,47.4631505419328],[-122.240187142532,47.4622478684528],[-122.240236030986,47.4594890907195],[-122.240306808269,47.4573401156103],[-122.240389953092,47.4547684482982],[-122.240788430914,47.4547735907724],[-122.241963467089,47.4547999609603],[-122.242754943187,47.4548007533179],[-122.243024584894,47.4548041734587],[-122.24389634191,47.4547566059729],[-122.243868418383,47.4545519010758],[-122.243902061225,47.4544887212312],[-122.243959002174,47.4543636658977],[-122.24402025649,47.4542998665169],[-122.244465418788,47.4540128842234],[-122.24516906125,47.4533947981716],[-122.245449014565,47.4531113061938],[-122.245611505812,47.4529357448006],[-122.245693688676,47.4528340928364],[-122.245781245503,47.4527490135859],[-122.245993369008,47.4525667929264],[-122.246175347407,47.4524658445698],[-122.246408751843,47.4523177511332],[-122.246797853994,47.4520323859845],[-122.247012329333,47.4517980721511],[-122.247235705674,47.4514838039657],[-122.247331774026,47.451295056736],[-122.247385958647,47.4510657068116],[-122.247400321156,47.450844421493],[-122.247344262173,47.4505958568568],[-122.247215023965,47.4503489851494],[-122.247052898277,47.4501412333639],[-122.246886103045,47.44998970086],[-122.246732002684,47.4498780155501],[-122.246560655532,47.4497805263051],[-122.246394989739,47.4497003029064],[-122.24623936894,47.4496550551975],[-122.245577459141,47.4494745908899],[-122.245230687226,47.449391566465],[-122.245097899087,47.4493202958125],[-122.245046581487,47.4492708417986],[-122.244881484821,47.4491509517183],[-122.244750288586,47.449091183687],[-122.244677616423,47.4490373290473],[-122.244656704509,47.4489810950976],[-122.244573214231,47.4489404567951],[-122.244379518549,47.4488540401306],[-122.244278537818,47.448760810671],[-122.244202736066,47.4486695412238],[-122.244117765198,47.448492740502],[-122.244027062802,47.4483896746517],[-122.243964372157,47.4482866166338],[-122.24394219331,47.4481188836173],[-122.243930462274,47.4479823695139],[-122.243945762013,47.4477809747487],[-122.244180890119,47.4474381413103],[-122.244482820887,47.4471509056702],[-122.24518511715,47.446635719309],[-122.245946554391,47.4461218465979],[-122.246125474558,47.4459729161259],[-122.246422852222,47.4456008313615],[-122.24675029997,47.4451620444269],[-122.246863959738,47.444801469223],[-122.246850498379,47.4443724190859],[-122.246712584304,47.4438397732203],[-122.246651056714,47.4433627676501],[-122.24684778797,47.442602798011],[-122.246761060565,47.4419174821532],[-122.246638673045,47.4416934912659],[-122.246475308749,47.4411778686463],[-122.246430881061,47.4410478847367],[-122.246362621943,47.4407572236146],[-122.246289669074,47.4405639824607],[-122.246236717754,47.4404575146571],[-122.246200850272,47.4403061667699],[-122.246122710454,47.4399720714681],[-122.246103717802,47.4397261654605],[-122.246163680239,47.4394464256811],[-122.24632878296,47.4391914235939],[-122.246620506642,47.4389947830351],[-122.246782854638,47.4389277484394],[-122.247002742445,47.4388842349192],[-122.247432556374,47.4388786023006],[-122.247825864755,47.4389873787098],[-122.248046827709,47.4392719530511],[-122.248363282146,47.4397782797777],[-122.248587975522,47.4400106970384],[-122.248724334564,47.4401088299827],[-122.249236542669,47.4405502295557],[-122.249623197033,47.4408534958539],[-122.250036929539,47.4411765401776],[-122.250147376662,47.4412194635148],[-122.250225518386,47.4412616802302],[-122.250306281572,47.4413231882146],[-122.250361354057,47.4413568563805],[-122.250454155259,47.441400256269],[-122.250664949542,47.4414689453528],[-122.250828009016,47.4415165019584],[-122.25092795968,47.4415329117021],[-122.251025192107,47.4415455122899],[-122.251226436612,47.4415790018404],[-122.251358582273,47.4415829983133],[-122.25159703164,47.4415636200827],[-122.251797600013,47.4415300454983],[-122.251924134524,47.4414880462127],[-122.252086834395,47.4414279642528],[-122.252164410272,47.441386989107],[-122.252307503543,47.4413267130901],[-122.25243486478,47.4412616976794],[-122.2528352812,47.4412638162616],[-122.252916941643,47.4412465890125],[-122.253109840059,47.4412180441284],[-122.253276301893,47.441210501555],[-122.25335028193,47.4412093576517],[-122.258122376255,47.4412671961526],[-122.258146588128,47.4402692306353],[-122.259553458812,47.4402823618124],[-122.260036632403,47.440284228321],[-122.260307074163,47.44026840092],[-122.260545997674,47.4401700253839],[-122.260587556469,47.4403948419144],[-122.260416827796,47.4413971647031],[-122.261964668912,47.4414325467326],[-122.262482499331,47.4414523441774],[-122.262588803142,47.4415562874651],[-122.262762147643,47.4417471220551],[-122.262910838162,47.4419821348331],[-122.263097593797,47.4421903464483],[-122.263386333519,47.4423446305716],[-122.263999235059,47.4425299204958],[-122.265160068225,47.4428749832889],[-122.26515685897,47.4430384284392],[-122.266245659356,47.4433900076094],[-122.267092023307,47.4439014007283],[-122.266788977379,47.4451187652764],[-122.266317182867,47.4451122834441],[-122.265730566631,47.445117836104],[-122.265157616312,47.4470810958948],[-122.26513184621,47.4478018633278],[-122.265490077672,47.4478062974129],[-122.26559671959,47.4478076173558],[-122.265846242324,47.4480613010867],[-122.264938484498,47.4505346377368],[-122.263641070882,47.4505549770383],[-122.26364047604,47.4518617977457],[-122.263753487122,47.4518825801632],[-122.263646888399,47.4522866635425],[-122.264213072066,47.4522829618779],[-122.264022741566,47.4526838574491],[-122.263598833048,47.4529607239003],[-122.263490940714,47.453068213485],[-122.263314676946,47.4535200974388],[-122.263474856369,47.4537038116813],[-122.263289771479,47.4543883396456],[-122.263093366409,47.4554299635731],[-122.262923013491,47.4558159005796],[-122.262668081975,47.4579192282867],[-122.262463023825,47.4589358981635],[-122.262568011161,47.4599172810884],[-122.262517596706,47.4606884680395],[-122.262311719003,47.4612144068881],[-122.261898802646,47.4615652414062],[-122.261072327497,47.4618813298734],[-122.260005537147,47.462067496032]]]},"properties":{"OBJECTID":12,"Id":0,"Neighborho":"Tukwila Urban Center","DataProvid":"Tukwila","EditDate":"Wed, 01 Dec 2010 00:00:00 GMT","Area":907,"SqFeet":39524679}}]}